NORAD_CAT_ID,OBJECT_NAME,OBJECT_TYPE,EPOCH,MEAN_MOTION,ECCENTRICITY,INCLINATION,RA_OF_ASC_NODE,ARG_OF_PERICENTER,MEAN_ANOMALY,BSTAR,MEAN_MOTION_DOT,MEAN_MOTION_DDOT,TLE_LINE0,TLE_LINE1,TLE_LINE2,SEMIMAJOR_AXIS,PERIOD,APOGEE,PERIGEE,DECAYED
51105.0,STARLINK-3350,PAYLOAD,2023-01-08 21:22:40,15.08848264,0.0002579,53.2148,77.7186,24.753,335.3586,0.00050231,7.717e-05,0.0,0 STARLINK-3350,1 51105U 22005B   23008.89074730  .00007717  00000-0  50231-3 0  9998,2 51105  53.2148  77.7186 0002579  24.7530 335.3586 15.08848264 54397,6917.855,95.437,541.504,537.936,0.0
51105.0,STARLINK-3350,PAYLOAD,2023-01-09 05:19:36,15.08849125,0.0002541,53.2164,76.2322,29.2584,330.8551,0.00042893,6.547e-05,0.0,0 STARLINK-3350,1 51105U 22005B   23009.22194628  .00006547  00000-0  42893-3 0  9990,2 51105  53.2164  76.2322 0002541  29.2584 330.8551 15.08849125 54444,6917.852,95.437,541.475,537.96,0.0
51105.0,STARLINK-3350,PAYLOAD,2023-01-09 13:16:31,15.08847514,0.0002721,53.2146,74.7445,27.809,332.3047,0.00026254,3.893e-05,0.0,0 STARLINK-3350,1 51105U 22005B   23009.55314590  .00003893  00000-0  26254-3 0  9992,2 51105  53.2146  74.7445 0002721  27.8090 332.3047 15.08847514 55605,6917.857,95.437,541.605,537.84,0.0
51105.0,STARLINK-3350,PAYLOAD,2023-01-10 05:10:23,15.08841956,0.0002786,53.2136,71.7696,29.788,330.327,6.6107e-05,7.64e-06,0.0,0 STARLINK-3350,1 51105U 22005B   23010.21554654  .00000764  00000-0  66107-4 0  9990,2 51105  53.2136  71.7696 0002786  29.7880 330.3270 15.08841956 55709,6917.874,95.437,541.6669999999998,537.812,0.0
51105.0,STARLINK-3350,PAYLOAD,2023-01-10 13:07:18,15.08842362,0.0002559,53.2152,70.2836,28.3934,331.7198,1.878900000000001e-05,1.1e-07,0.0,0 STARLINK-3350,1 51105U 22005B   23010.54674638  .00000011  00000-0  18789-4 0  9999,2 51105  53.2152  70.2836 0002559  28.3934 331.7198 15.08842362 54648,6917.873000000001,95.437,541.508,537.9680000000002,0.0
51105.0,STARLINK-3350,PAYLOAD,2023-01-11 09:47:20,15.088329000000002,0.0002486,53.2146,66.417,28.7322,331.3807,-2.2943e-05,-6.53e-06,0.0,0 STARLINK-3350,1 51105U 22005B   23011.40787402 -.00000653  00000-0 -22943-4 0  9990,2 51105  53.2146  66.4170 0002486  28.7322 331.3807 15.08832900 55880,6917.901999999999,95.438,541.487,538.047,0.0
51105.0,STARLINK-3350,PAYLOAD,2023-01-11 12:58:06,15.0883999,0.0002581,53.2148,65.8218,30.101,330.0130000000001,6.6224e-05,7.66e-06,0.0,0 STARLINK-3350,1 51105U 22005B   23011.54035231  .00000766  00000-0  66224-4 0  9994,2 51105  53.2148  65.8218 0002581  30.1010 330.0130 15.08839990 54795,6917.88,95.438,541.531,537.96,0.0
51105.0,STARLINK-3350,PAYLOAD,2023-01-11 20:55:02,15.08836565,0.0002398,53.2164,64.3362,27.307,332.8048,6.1606e-05,6.92e-06,0.0,0 STARLINK-3350,1 51105U 22005B   23011.87155366  .00000692  00000-0  61606-4 0  9999,2 51105  53.2164  64.3362 0002398  27.3070 332.8048 15.08836565 54846,6917.891,95.438,541.415,538.097,0.0
51105.0,STARLINK-3350,PAYLOAD,2023-01-12 20:45:49,15.08837136,0.0002434,53.2155,59.8756,36.2655,323.8502,0.0001321,1.815e-05,0.0,0 STARLINK-3350,1 51105U 22005B   23012.86515624  .00001815  00000-0  13210-3 0  9991,2 51105  53.2155  59.8756 0002434  36.2655 323.8502 15.08837136 56102,6917.889,95.438,541.438,538.07,0.0
51105.0,STARLINK-3350,PAYLOAD,2023-01-13 12:39:40,15.08843455,0.0002461999999999,53.2157,56.8999,44.6483,315.4707,8.1954e-05,1.016e-05,0.0,0 STARLINK-3350,1 51105U 22005B   23013.52755752  .00001016  00000-0  81954-4 0  9997,2 51105  53.2157  56.8999 0002462  44.6483 315.4707 15.08843455 55095,6917.87,95.437,541.438,538.0319999999999,0.0
51105.0,STARLINK-3350,PAYLOAD,2023-01-14 01:22:46,15.08834821,0.0002396999999999,53.2143,54.5231,45.1155,315.0031,0.0001277,1.744e-05,0.0,0 STARLINK-3350,1 51105U 22005B   23014.05748550  .00001744  00000-0  12770-3 0  9991,2 51105  53.2143  54.5231 0002397  45.1155 315.0031 15.08834821 56288,6917.896,95.438,541.419,538.1030000000001,0.0
51105.0,STARLINK-3350,PAYLOAD,2023-01-14 09:19:42,15.08844062,0.0002368,53.2146,53.0362,47.2659,312.8532,0.00021469,3.131e-05,0.0,0 STARLINK-3350,1 51105U 22005B   23014.38868069  .00003131  00000-0  21469-3 0  9992,2 51105  53.2146  53.0362 0002368  47.2659 312.8532 15.08844062 56335,6917.868,95.437,541.371,538.095,0.0
51105.0,STARLINK-3350,PAYLOAD,2023-01-14 18:52:01,15.08837105,0.000242,53.2164,51.2506,51.464,308.6569,8.2628e-05,1.027e-05,0.0,0 STARLINK-3350,1 51105U 22005B   23014.78612433  .00001027  00000-0  82628-4 0  9995,2 51105  53.2164  51.2506 0002420  51.4640 308.6569 15.08837105 56390,6917.889,95.438,541.428,538.08,0.0
51105.0,STARLINK-3350,PAYLOAD,2023-01-15 12:21:15,15.08845994,0.0002587,53.2143,47.9818,62.2886,297.8368,0.00017142,2.441e-05,0.0,0 STARLINK-3350,1 51105U 22005B   23015.51476250  .00002441  00000-0  17142-3 0  9991,2 51105  53.2143  47.9818 0002587  62.2886 297.8368 15.08845994 55391,6917.861999999999,95.437,541.5169999999999,537.937,0.0
51105.0,STARLINK-3350,PAYLOAD,2023-01-15 18:42:47,15.08846193,0.0002061,53.2144,46.7918,53.0183,307.0997,0.00018522,2.661e-05,0.0,0 STARLINK-3350,1 51105U 22005B   23015.77972165  .00002661  00000-0  18522-3 0  9992,2 51105  53.2144  46.7918 0002061  53.0183 307.0997 15.08846193 55434,6917.861,95.437,541.1519999999999,538.3009999999999,0.0
51105.0,STARLINK-3350,PAYLOAD,2023-01-16 01:04:20,15.08845824,0.0002353,53.2121,45.5996,60.9295,299.1933,0.00021727,3.172e-05,0.0,0 STARLINK-3350,1 51105U 22005B   23016.04468270  .00003172  00000-0  21727-3 0  9999,2 51105  53.2121  45.5996 0002353  60.9295 299.1933 15.08845824 56585,6917.863,95.437,541.355,538.1,0.0
51105.0,STARLINK-3350,PAYLOAD,2023-01-16 09:01:15,15.08862338,0.0002076,53.2143,44.1148,65.0247,295.0961,0.0006837,0.00010616,0.0,0 STARLINK-3350,1 51105U 22005B   23016.37587666  .00010616  00000-0  68370-3 0  9992,2 51105  53.2143  44.1148 0002076  65.0247 295.0961 15.08862338 56639,6917.812,95.436,541.113,538.241,0.0
51105.0,STARLINK-3350,PAYLOAD,2023-01-16 18:33:34,15.08850651,0.0002056999999999,53.2147,42.3303,71.0397,289.0818,0.00020635,2.998e-05,0.0,0 STARLINK-3350,1 51105U 22005B   23016.77331761  .00002998  00000-0  20635-3 0  9995,2 51105  53.2147  42.3303 0002057  71.0397 289.0818 15.08850651 56693,6917.848000000001,95.437,541.136,538.29,0.0
51105.0,STARLINK-3350,PAYLOAD,2023-01-17 02:30:30,15.08825215,0.0001928,53.2147,40.8452,82.0461,278.075,-0.00041403,-6.869e-05,0.0,0 STARLINK-3350,1 51105U 22005B   23017.10452424 -.00006869  00000-0 -41403-3 0  9992,2 51105  53.2147  40.8452 0001928  82.0461 278.0750 15.08825215 56748,6917.926,95.438,541.124,538.457,0.0
51105.0,STARLINK-3350,PAYLOAD,2023-01-17 05:41:17,15.08822273,0.0001909999999999,53.2145,40.2503,82.0426,278.0783,-0.0004086999999999,-6.784e-05,0.0,0 STARLINK-3350,1 51105U 22005B   23017.23700461 -.00006784  00000-0 -40870-3 0  9996,2 51105  53.2145  40.2503 0001910  82.0426 278.0783 15.08822273 55655,6917.935,95.439,541.121,538.4780000000001,0.0
51105.0,STARLINK-3350,PAYLOAD,2023-01-17 18:24:22,15.08828358,0.0001986,53.2152,37.8702,86.9609,273.1611,0.00089199,0.00013932,0.0,0 STARLINK-3350,1 51105U 22005B   23017.76693265  .00013932  00000-0  89199-3 0  9995,2 51105  53.2152  37.8702 0001986  86.9609 273.1611 15.08828358 55730,6917.916,95.438,541.155,538.4069999999999,0.0
51105.0,STARLINK-3350,PAYLOAD,2023-01-18 07:07:28,15.08856603,0.0001878,53.2145,35.4914,87.7451,272.3756,0.0015232,0.00024048,0.0,0 STARLINK-3350,1 51105U 22005B   23018.29685196  .00024048  00000-0  15232-2 0  9994,2 51105  53.2145  35.4914 0001878  87.7451 272.3756 15.08856603 56922,6917.83,95.437,540.994,538.395,0.0
51105.0,STARLINK-3350,PAYLOAD,2023-01-18 08:42:51,15.08857822,0.0001908,53.2147,35.1945,87.1119,273.0091,0.0017230999999999,0.00027255,0.0,0 STARLINK-3350,1 51105U 22005B   23018.36309184  .00027255  00000-0  17231-2 0  9996,2 51105  53.2147  35.1945 0001908  87.1119 273.0091 15.08857822 55826,6917.826,95.436,541.011,538.371,0.0
51105.0,STARLINK-3350,PAYLOAD,2023-01-18 21:25:55,15.08860174,0.0001972,53.2141,32.8136,92.0892,268.0326,0.00063984,9.915e-05,0.0,0 STARLINK-3350,1 51105U 22005B   23018.89300691  .00009915  00000-0  63984-3 0  9998,2 51105  53.2141  32.8136 0001972  92.0892 268.0326 15.08860174 57012,6917.819,95.436,541.048,538.32,0.0
51105.0,STARLINK-3350,PAYLOAD,2023-01-19 10:09:00,15.08873474,0.0001846,53.2123,30.4346,95.7815,264.3388,0.00084997,0.00013278,0.0,0 STARLINK-3350,1 51105U 22005B   23019.42291737  .00013278  00000-0  84997-3 0  9992,2 51105  53.2123  30.4346 0001846  95.7815 264.3388 15.08873474 55982,6917.778,95.435,540.92,538.366,0.0
51105.0,STARLINK-3350,PAYLOAD,2023-01-19 18:05:56,15.08842962,0.0002616,53.2145,28.9485,82.1124,278.0165,-8.4134e-06,-4.22e-06,0.0,0 STARLINK-3350,1 51105U 22005B   23019.75412594 -.00000422  00000-0 -84134-5 0  9998,2 51105  53.2145  28.9485 0002616  82.1124 278.0165 15.08842962 57144,6917.871,95.437,541.5459999999999,537.927,0.0
51105.0,STARLINK-3350,PAYLOAD,2023-01-20 06:49:01,15.08826877,0.0002106999999999,53.2149,26.5687,88.2948,271.8286,-0.00013338,-2.4100000000000003e-05,0.0,0 STARLINK-3350,1 51105U 22005B   23020.28404978 -.00002410  00000-0 -13338-3 0  9990,2 51105  53.2149  26.5687 0002107  88.2948 271.8286 15.08826877 57223,6917.920999999999,95.438,541.243,538.328,0.0
51105.0,STARLINK-3350,PAYLOAD,2023-01-21 03:29:03,15.08843848,0.0001764999999999,53.2156,22.7032,87.1596,272.9598,0.00069001,0.00010712,0.0,0 STARLINK-3350,1 51105U 22005B   23021.14517475  .00010712  00000-0  69001-3 0  9993,2 51105  53.2156  22.7032 0001765  87.1596 272.9598 15.08843848 57358,6917.869000000001,95.437,540.955,538.513,0.0
51105.0,STARLINK-3350,PAYLOAD,2023-01-22 08:05:59,15.08860442,0.0001617,53.2154,17.3474,85.9817,274.136,0.0007541,0.00011741,0.0,0 STARLINK-3350,1 51105U 22005B   23022.33749089  .00011741  00000-0  75410-3 0  9997,2 51105  53.2154  17.3474 0001617  85.9817 274.1360 15.08860442 57534,6917.818,95.436,540.802,538.564,0.0
